{
 "generated_at": "2026-06-19T09:28:30Z",
 "sources": [
  {
   "name": "CelesTrak",
   "url": "https://celestrak.org/NORAD/elements/",
   "license": "frei verfügbar; Attribution. Ursprünglich USSPACECOM/Space-Track."
  },
  {
   "name": "GCAT (J. McDowell, planet4589.org)",
   "url": "https://planet4589.org/space/gcat/",
   "license": "CC-BY 4.0"
  }
 ],
 "satellites": [
  {
   "norad": 68291,
   "name": "STRIX-6",
   "intl": "2026-056A",
   "group": "sar",
   "gcat": {
    "class": "B",
    "category": "IMG-R",
    "owner": "SYNSP",
    "state": "J"
   },
   "omm": {
    "OBJECT_NAME": "STRIX-6",
    "OBJECT_ID": "2026-056A",
    "EPOCH": "2026-06-18T12:37:46.773120",
    "MEAN_MOTION": 15.00172604,
    "ECCENTRICITY": 0.0016378,
    "INCLINATION": 50.2848,
    "RA_OF_ASC_NODE": 343.4669,
    "ARG_OF_PERICENTER": 248.7494,
    "MEAN_ANOMALY": 111.1707,
    "EPHEMERIS_TYPE": 0,
    "CLASSIFICATION_TYPE": "U",
    "NORAD_CAT_ID": 68291,
    "ELEMENT_SET_NO": 999,
    "REV_AT_EPOCH": 1347,
    "BSTAR": 0.00019957,
    "MEAN_MOTION_DOT": 0.00002262,
    "MEAN_MOTION_DDOT": 0
   }
  },
  {
   "norad": 69177,
   "name": "STRIX-7",
   "intl": "2026-112A",
   "group": "sar",
   "gcat": {
    "class": "B",
    "category": "IMG-R",
    "owner": "SYNSP",
    "state": "J"
   },
   "omm": {
    "OBJECT_NAME": "STRIX-7",
    "OBJECT_ID": "2026-112A",
    "EPOCH": "2026-06-19T04:02:29.480064",
    "MEAN_MOTION": 15.01441639,
    "ECCENTRICITY": 0.0023099,
    "INCLINATION": 44.9068,
    "RA_OF_ASC_NODE": 182.0433,
    "ARG_OF_PERICENTER": 58.6161,
    "MEAN_ANOMALY": 301.6966,
    "EPHEMERIS_TYPE": 0,
    "CLASSIFICATION_TYPE": "U",
    "NORAD_CAT_ID": 69177,
    "ELEMENT_SET_NO": 999,
    "REV_AT_EPOCH": 417,
    "BSTAR": 0.00012987,
    "MEAN_MOTION_DOT": 0.00001477,
    "MEAN_MOTION_DDOT": 0
   }
  },
  {
   "norad": 37849,
   "name": "SUOMI NPP",
   "intl": "2011-061A",
   "group": "weather",
   "gcat": {
    "class": "C",
    "category": "MET",
    "owner": "GSFC/NOAA",
    "state": "US"
   },
   "omm": {
    "OBJECT_NAME": "SUOMI NPP",
    "OBJECT_ID": "2011-061A",
    "EPOCH": "2026-06-19T04:09:22.835808",
    "MEAN_MOTION": 14.19517758,
    "ECCENTRICITY": 0.0001422,
    "INCLINATION": 98.7953,
    "RA_OF_ASC_NODE": 111.0357,
    "ARG_OF_PERICENTER": 2.0754,
    "MEAN_ANOMALY": 358.0428,
    "EPHEMERIS_TYPE": 0,
    "CLASSIFICATION_TYPE": "U",
    "NORAD_CAT_ID": 37849,
    "ELEMENT_SET_NO": 999,
    "REV_AT_EPOCH": 75872,
    "BSTAR": 0.000048833,
    "MEAN_MOTION_DOT": 5.9e-7,
    "MEAN_MOTION_DDOT": 0
   }
  },
  {
   "norad": 54754,
   "name": "SWOT",
   "intl": "2022-173A",
   "group": "resource",
   "gcat": {
    "class": "C",
    "category": "EOSCI",
    "owner": "CNES/JPL",
    "state": "F"
   },
   "omm": {
    "OBJECT_NAME": "SWOT",
    "OBJECT_ID": "2022-173A",
    "EPOCH": "2026-06-19T04:52:48.284832",
    "MEAN_MOTION": 14.00169854,
    "ECCENTRICITY": 0.0000268,
    "INCLINATION": 77.6106,
    "RA_OF_ASC_NODE": 32.5885,
    "ARG_OF_PERICENTER": 89.8532,
    "MEAN_ANOMALY": 270.265,
    "EPHEMERIS_TYPE": 0,
    "CLASSIFICATION_TYPE": "U",
    "NORAD_CAT_ID": 54754,
    "ELEMENT_SET_NO": 999,
    "REV_AT_EPOCH": 17943,
    "BSTAR": 0.000029291,
    "MEAN_MOTION_DOT": 4.1e-7,
    "MEAN_MOTION_DDOT": 0
   }
  },
  {
   "norad": 36605,
   "name": "TANDEM-X",
   "intl": "2010-030A",
   "group": "resource",
   "gcat": {
    "class": null,
    "category": "IMG-R",
    "owner": "DLR2/EASF",
    "state": "D"
   },
   "omm": {
    "OBJECT_NAME": "TANDEM-X",
    "OBJECT_ID": "2010-030A",
    "EPOCH": "2026-06-17T14:05:11.365440",
    "MEAN_MOTION": 15.19150445,
    "ECCENTRICITY": 0.00018883,
    "INCLINATION": 97.4451,
    "RA_OF_ASC_NODE": 176.2891,
    "ARG_OF_PERICENTER": 87.7615,
    "MEAN_ANOMALY": 272.3836,
    "EPHEMERIS_TYPE": 0,
    "CLASSIFICATION_TYPE": "U",
    "NORAD_CAT_ID": 36605,
    "ELEMENT_SET_NO": 999,
    "REV_AT_EPOCH": 88670,
    "BSTAR": 0.000016858258,
    "MEAN_MOTION_DOT": 0.00000287,
    "MEAN_MOTION_DDOT": 0
   }
  },
  {
   "norad": 25397,
   "name": "TECHSAT 1B (GO-32)",
   "intl": "1998-043D",
   "group": "resource",
   "gcat": {
    "class": "A",
    "category": "COM",
    "owner": "TECN",
    "state": "IL"
   },
   "omm": {
    "OBJECT_NAME": "TECHSAT 1B (GO-32)",
    "OBJECT_ID": "1998-043D",
    "EPOCH": "2026-06-18T21:22:37.141824",
    "MEAN_MOTION": 14.24428674,
    "ECCENTRICITY": 0.0001138,
    "INCLINATION": 99.0067,
    "RA_OF_ASC_NODE": 162.6924,
    "ARG_OF_PERICENTER": 159.5485,
    "MEAN_ANOMALY": 200.5739,
    "EPHEMERIS_TYPE": 0,
    "CLASSIFICATION_TYPE": "U",
    "NORAD_CAT_ID": 25397,
    "ELEMENT_SET_NO": 999,
    "REV_AT_EPOCH": 45157,
    "BSTAR": 0.000034783,
    "MEAN_MOTION_DOT": 3.4e-7,
    "MEAN_MOTION_DDOT": 0
   }
  },
  {
   "norad": 25994,
   "name": "TERRA",
   "intl": "1999-068A",
   "group": "resource",
   "gcat": {
    "class": "C",
    "category": "IMG",
    "owner": "GSFC",
    "state": "US"
   },
   "omm": {
    "OBJECT_NAME": "TERRA",
    "OBJECT_ID": "1999-068A",
    "EPOCH": "2026-06-19T03:11:58.534368",
    "MEAN_MOTION": 14.61104406,
    "ECCENTRICITY": 0.0001741,
    "INCLINATION": 97.9455,
    "RA_OF_ASC_NODE": 219.6024,
    "ARG_OF_PERICENTER": 183.023,
    "MEAN_ANOMALY": 200.4664,
    "EPHEMERIS_TYPE": 0,
    "CLASSIFICATION_TYPE": "U",
    "NORAD_CAT_ID": 25994,
    "ELEMENT_SET_NO": 999,
    "REV_AT_EPOCH": 40989,
    "BSTAR": 0.000065331,
    "MEAN_MOTION_DOT": 0.00000277,
    "MEAN_MOTION_DDOT": 0
   }
  },
  {
   "norad": 31698,
   "name": "TERRASAR-X",
   "intl": "2007-026A",
   "group": "resource",
   "gcat": {
    "class": null,
    "category": "IMG-R",
    "owner": "DLR2/EASF",
    "state": "D"
   },
   "omm": {
    "OBJECT_NAME": "TERRASAR-X",
    "OBJECT_ID": "2007-026A",
    "EPOCH": "2026-06-17T14:05:11.304960",
    "MEAN_MOTION": 15.19150392,
    "ECCENTRICITY": 0.00015603,
    "INCLINATION": 97.4452,
    "RA_OF_ASC_NODE": 176.2866,
    "ARG_OF_PERICENTER": 90.2646,
    "MEAN_ANOMALY": 269.8767,
    "EPHEMERIS_TYPE": 0,
    "CLASSIFICATION_TYPE": "U",
    "NORAD_CAT_ID": 31698,
    "ELEMENT_SET_NO": 999,
    "REV_AT_EPOCH": 5328,
    "BSTAR": 0.000016539198,
    "MEAN_MOTION_DOT": 0.0000028,
    "MEAN_MOTION_DDOT": 0
   }
  },
  {
   "norad": 33396,
   "name": "THEOS",
   "intl": "2008-049A",
   "group": "resource",
   "gcat": {
    "class": "C",
    "category": "IMG",
    "owner": "GISTDA",
    "state": "T"
   },
   "omm": {
    "OBJECT_NAME": "THEOS",
    "OBJECT_ID": "2008-049A",
    "EPOCH": "2026-06-19T05:21:45.801792",
    "MEAN_MOTION": 14.20133067,
    "ECCENTRICITY": 0.0001202,
    "INCLINATION": 98.5565,
    "RA_OF_ASC_NODE": 227.4412,
    "ARG_OF_PERICENTER": 81.1549,
    "MEAN_ANOMALY": 278.9764,
    "EPHEMERIS_TYPE": 0,
    "CLASSIFICATION_TYPE": "U",
    "NORAD_CAT_ID": 33396,
    "ELEMENT_SET_NO": 999,
    "REV_AT_EPOCH": 91825,
    "BSTAR": 0.000011142,
    "MEAN_MOTION_DOT": -1.9e-7,
    "MEAN_MOTION_DDOT": 0
   }
  },
  {
   "norad": 55973,
   "name": "TIANMU-1 03",
   "intl": "2023-039A",
   "group": "weather",
   "gcat": {
    "class": "B",
    "category": "MET",
    "owner": "TIANMU",
    "state": "CN"
   },
   "omm": {
    "OBJECT_NAME": "TIANMU-1 03",
    "OBJECT_ID": "2023-039A",
    "EPOCH": "2026-06-19T04:25:24.214656",
    "MEAN_MOTION": 15.47332356,
    "ECCENTRICITY": 0.0004137,
    "INCLINATION": 97.5239,
    "RA_OF_ASC_NODE": 344.2311,
    "ARG_OF_PERICENTER": 94.0059,
    "MEAN_ANOMALY": 266.1664,
    "EPHEMERIS_TYPE": 0,
    "CLASSIFICATION_TYPE": "U",
    "NORAD_CAT_ID": 55973,
    "ELEMENT_SET_NO": 999,
    "REV_AT_EPOCH": 18114,
    "BSTAR": 0.00024838,
    "MEAN_MOTION_DOT": 0.00012596,
    "MEAN_MOTION_DDOT": 0
   }
  }
 ]
}
