TECHSAT 1B (GO-32)      
1 25397U 98043D   26169.89070766  .00000034  00000+0  34783-4 0  9992
2 25397  99.0067 162.6924 0001138 159.5485 200.5739 14.24428674451579
TERRA                   
1 25994U 99068A   26170.13331637  .00000277  00000+0  65331-4 0  9991
2 25994  97.9455 219.6024 0001741 183.0230 200.4664 14.61104406409893
TERRASAR-X              
1 31698U 07026A   26168.58693640  .00000280  00000+0  16539-4 0  9993
2 31698  97.4452 176.2866 0001560  90.2646 269.8767 15.19150392 53284
THEOS                   
1 33396U 08049A   26170.22344678 -.00000019  00000+0  11142-4 0  9990
2 33396  98.5565 227.4412 0001202  81.1549 278.9764 14.20133067918254
TANDEM-X                
1 36605U 10030A   26168.58693710  .00000287  00000+0  16858-4 0  9994
2 36605  97.4451 176.2891 0001888  87.7615 272.3836 15.19150445886700
SUOMI NPP               
1 37849U 11061A   26170.17318097  .00000059  00000+0  48833-4 0  9995
2 37849  98.7953 111.0357 0001422   2.0754 358.0428 14.19517758758726
SWOT                    
1 54754U 22173A   26170.20333663  .00000041  00000+0  29291-4 0  9993
2 54754  77.6106  32.5885 0000268  89.8532 270.2650 14.00169854179430
TIANMU-1 03             
1 55973U 23039A   26170.18430804  .00012596  00000+0  24838-3 0  9990
2 55973  97.5239 344.2311 0004137  94.0059 266.1664 15.47332356181141
STRIX-6                 
1 68291U 26056A   26169.52623580  .00002262  00000+0  19957-3 0  9995
2 68291  50.2848 343.4669 0016378 248.7494 111.1707 15.00172604 13472
STRIX-7                 
1 69177U 26112A   26170.16839676  .00001477  00000+0  12987-3 0  9992
2 69177  44.9068 182.0433 0023099  58.6161 301.6966 15.01441639  4171
